ONEWEB-0113             
1 48050U 21025J   22025.42918933 -.00000188  00000+0 -54972-3 0  9995
2 48050  87.8971 278.8467 0001372  73.5897 286.5382 13.13472687 43051
ONEWEB-0112             
1 48051U 21025K   22025.41799728 -.00000266  00000+0 -76291-3 0  9999
2 48051  87.8862 278.8180 0001465  76.9722 283.1570 13.13468829 43066
ONEWEB-0156             
1 48052U 21025L   22025.42696662 -.00000195  00000+0 -56770-3 0  9995
2 48052  87.8976 278.8175 0001540  77.4445 282.6856 13.13470661 43045
ONEWEB-0161             
1 48053U 21025M   22025.78095425 -.00000029  00000+0 -11414-3 0  9997
2 48053  87.8910 278.7585 0001444  83.8230 276.3064 13.13467699 43031
ONEWEB-0158             
1 48054U 21025N   22025.74509343 -.00000245  00000+0 -70504-3 0  9998
2 48054  87.8968 278.7799 0001340  66.2271 293.8999 13.13470587 43140
ONEWEB-0157             
1 48055U 21025P   22025.76751583  .00000335  00000+0  88309-3 0  9996
2 48055  87.8946 278.7652 0001834  88.6481 271.4858 13.13468244 43091
ONEWEB-0162             
1 48056U 21025Q   22025.72943211 -.00000265  00000+0 -75938-3 0  9992
2 48056  87.8890 278.7422 0001711  76.1072 284.0247 13.13471948 43038
ONEWEB-0155             
1 48057U 21025R   22025.75182441  .00000243  00000+0  63058-3 0  9990
2 48057  87.8926 278.7599 0001361  81.3894 278.7389 13.13473644 43206
ONEWEB-0149             
1 48058U 21025S   22025.77200204  .00000243  00000+0  63097-3 0  9994
2 48058  87.8966 278.7418 0002135  71.6414 288.4947 13.13470500 43016
ONEWEB-0148             
1 48059U 21025T   22025.43143197 -.00000151  00000+0 -44786-3 0  9999
2 48059  87.8934 278.8121 0002481  83.1246 277.0165 13.13471394 43084
ONEWEB-0160             
1 48060U 21025U   22025.44937815  .00000293  00000+0  76767-3 0  9999
2 48060  87.8916 278.8234 0001323  23.3543 336.7646 13.13471841 43030
ONEWEB-0163             
1 48061U 21025V   22025.43367989 -.00000110  00000+0 -33530-3 0  9999
2 48061  87.8982 278.8563 0001893  97.4905 262.6439 13.13469081 43158
ONEWEB-0159             
1 48062U 21025W   22025.42248142 -.00000263  00000+0 -75460-3 0  9995
2 48062  87.8960 278.7708 0002071  89.9646 270.1721 13.13471508 43078
ONEWEB-0164             
1 48063U 21025X   22025.78544068 -.00000107  00000+0 -32842-3 0  9995
2 48063  87.8993 278.7921 0001168  82.9663 277.1599 13.13468740 43119
ONEWEB-0167             
1 48064U 21025Y   22025.43591732 -.00000122  00000+0 -37000-3 0  9996
2 48064  87.8945 278.8284 0001836  88.6085 271.5255 13.13470647 43041
ONEWEB-0166             
1 48065U 21025Z   22025.45607565  .00000358  00000+0  94452-3 0  9994
2 48065  87.8858 278.8172 0001628  86.5557 273.5759 13.13472645 43121
ONEWEB-0151             
1 48066U 21025AA  22025.45832146  .00000315  00000+0  82842-3 0  9993
2 48066  87.8959 278.8240 0001099  87.3845 272.7410 13.13469183 43062
ONEWEB-0170             
1 48067U 21025AB  22025.38886199  .00000310  00000+0  81429-3 0  9998
2 48067  87.8989 278.8655 0000402  76.1791 283.9383 13.13468152 43012
ONEWEB-0168             
1 48068U 21025AC  22025.60395797  .00000292  00000+0  76554-3 0  9995
2 48068  87.8970 278.8086 0001631  84.1606 275.9709 13.13471559 43052
ONEWEB-0173             
1 48069U 21025AD  22025.59724070 -.00000030  00000+0 -11640-3 0  9991
2 48069  87.8972 278.8168 0001355  98.8548 261.2735 13.13472029 43292
ONEWEB-0171             
1 48070U 21025AE  22025.78320467 -.00000102  00000+0 -31383-3 0  9992
2 48070  87.8901 278.7278 0001770  81.2057 278.9272 13.13469987 43132
ONEWEB-0172             
1 48071U 21025AF  22025.61024929 -.00001839  00000+0 -50714-2 0  9995
2 48071  87.8946 278.8803 0001276  99.9335 260.1938 13.13478029 44009
ONEWEB-0174             
1 48072U 21025AG  22025.74735390  .00000035  00000+0  60474-4 0  9992
2 48072  87.8916 278.7528 0002470  79.7258 280.4150 13.13469408 43345
ONEWEB-0175             
1 48073U 21025AH  22025.77424262  .00000225  00000+0  58142-3 0  9998
2 48073  87.8875 278.7860 0000851  79.1333 280.9892 13.13469520 43004
ONEWEB-0177             
1 48074U 21025AJ  22025.40678296 -.00000161  00000+0 -47620-3 0  9997
2 48074  87.8983 278.8522 0001923 104.3940 255.7402 13.13467938 43140
ONEWEB-0178             
1 48075U 21025AK  22025.42359527 -.00000267  00000+0 -76726-3 0  9999
2 48075  87.8912 278.8087 0001662  91.0692 269.0627 13.13467040 43191
ONEWEB-0108             
1 48076U 21025AL  22025.61292179  .00000281  00000+0  73417-3 0  9998
2 48076  87.8954 278.8001 0001834  65.0939 295.0380 13.13470861 43145
ONEWEB-0169             
1 48077U 21025AM  22025.41575813 -.00000312  00000+0 -89064-3 0  9998
2 48077  87.8986 278.8614 0001831  72.8351 287.2979 13.13468287 41775
ONEWEB-0176             
1 48210U 21031A   22025.60482660  .00000233  00000+0  59282-3 0  9991
2 48210  87.9036 248.4108 0001590  94.4893 265.6418 13.14505860 37644
ONEWEB-0184             
1 48211U 21031B   22025.65557865 -.00000042  00000+0 -14825-3 0  9991
2 48211  87.8927 248.4091 0000601 163.0120 197.1030 13.14506232 37623
ONEWEB-0179             
1 48212U 21031C   22025.62387357 -.00000023  00000+0 -96058-4 0  9994
2 48212  87.8934 248.4074 0001756  97.6391 262.4938 13.14501837 37660
ONEWEB-0180             
1 48213U 21031D   22025.65768744 -.00001328  00000+0 -36162-2 0  9998
2 48213  87.8925 248.4090 0001660  96.7370 263.3948 13.14508790 37554
ONEWEB-0218             
1 48214U 21031E   22025.60271237  .00000220  00000+0  55985-3 0  9993
2 48214  87.8916 248.3988 0001221 154.2996 205.8195 13.14500255 37707
ONEWEB-0209             
1 48215U 21031F   22025.59215847  .00000140  00000+0  34197-3 0  9990
2 48215  87.8943 248.4234 0001623  91.6458 268.4857 13.14505238 37702
ONEWEB-0198             
1 48216U 21031G   22025.65345981 -.00000126  00000+0 -37544-3 0  9996
2 48216  87.8993 248.4122 0001580 118.0885 242.0404 13.14501605 37805
ONEWEB-0189             
1 48217U 21031H   22025.59002853  .00000113  00000+0  26983-3 0  9997
2 48217  87.8925 248.4067 0001424 119.2762 240.8510 13.14501060 37554
ONEWEB-0196             
1 48218U 21031J   22025.64502159 -.00000201  00000+0 -57662-3 0  9996
2 48218  87.8945 248.3939 0001321  91.7018 268.4263 13.14501704 37554
ONEWEB-0183             
1 48219U 21031K   22025.69363525  .00000105  00000+0  24994-3 0  9997
2 48219  87.8952 248.3929 0001682  89.5587 270.5735 13.14505474 37666
ONEWEB-0185             
1 48220U 21031L   22025.64713309 -.00000195  00000+0 -56134-3 0  9995
2 48220  87.8936 248.4092 0001772  91.9655 268.1677 13.14501710 37583
ONEWEB-0187             
1 48221U 21031M   22025.62176929  .00000006  00000+0 -17430-4 0  9992
2 48221  87.8948 248.4144 0001709  91.3945 268.7381 13.14501295 37598
ONEWEB-0192             
1 48222U 21031N   22025.59427261  .00000166  00000+0  41244-3 0  9992
2 48222  87.8931 248.3983 0001259  98.3690 261.7583 13.14501318 37509
ONEWEB-0219             
1 48223U 21031P   22025.57521797 -.00000127  00000+0 -37807-3 0  9999
2 48223  87.8925 248.3990 0001613  91.5307 268.6008 13.14505481 37700
ONEWEB-0202             
1 48224U 21031Q   22025.70631683 -.00000103  00000+0 -31284-3 0  9998
2 48224  87.8950 248.3979 0001547 140.9589 219.1652 13.14503980 37712
ONEWEB-0204             
1 48225U 21031R   22025.69152611  .00000077  00000+0  17214-3 0  9991
2 48225  87.8968 248.3919 0001757  61.0449 299.0857 13.14504535 37606
ONEWEB-0205             
1 48226U 21031S   22025.56465497 -.00000186  00000+0 -53670-3 0  9996
2 48226  87.8944 248.4129 0000392 145.2439 214.8717 13.14505286 37595
ONEWEB-0206             
1 48227U 21031T   22025.68941796  .00000117  00000+0  27992-3 0  9991
2 48227  87.8919 248.3808 0001875  90.1715 269.9629 13.14501198 37572
ONEWEB-0182             
1 48228U 21031U   22025.60696216  .00000218  00000+0  55309-3 0  9993
2 48228  87.8964 248.4250 0001741  92.8172 267.3157 13.14502291 37767
ONEWEB-0186             
1 48229U 21031V   22025.69576788 -.00000002  00000+0 -41225-4 0  9990
2 48229  87.8935 248.3833 0001599 101.7724 258.3585 13.14502080 37734
ONEWEB-0181             
1 48230U 21031W   22025.59637151  .00000230  00000+0  58719-3 0  9999
2 48230  87.9034 248.3879 0001433  89.0430 271.0863 13.14505174 37565
ONEWEB-0188             
1 48231U 21031X   22025.63654825 -.00000258  00000+0 -73110-3 0  9996
2 48231  87.8954 248.4211 0001687  93.0798 267.0525 13.14505773 37475
ONEWEB-0220             
1 48232U 21031Y   22025.59850497  .00000178  00000+0  44563-3 0  9994
2 48232  87.8924 248.3941 0001786 104.4048 255.7280 13.14501686 37737
ONEWEB-0165             
1 48233U 21031Z   22025.70422239 -.00000078  00000+0 -24364-3 0  9995
2 48233  87.8948 248.4046 0001711 100.8011 259.3311 13.14502247 37705
ONEWEB-0199             
1 48234U 21031AA  22025.68729117  .00000214  00000+0  54280-3 0  9998
2 48234  87.8939 248.4055 0001559  97.1057 263.0250 13.14505556 37603
ONEWEB-0203             
1 48235U 21031AB  22025.60059974  .00000210  00000+0  53278-3 0  9990
2 48235  87.8955 248.3784 0000853  87.1974 272.9253 13.14500294 37609
ONEWEB-0197             
1 48236U 21031AC  22025.58792733  .00000053  00000+0  10819-3 0  9994
2 48236  87.8940 248.4197 0001470  93.4272 266.7026 13.14504957 37519
ONEWEB-0194             
1 48237U 21031AD  22025.63232571 -.00000140  00000+0 -41275-3 0  9999
2 48237  87.8937 248.4122 0001043  69.6184 290.5058 13.14500651 37693
ONEWEB-0193             
1 48238U 21031AE  22025.57310099 -.00000140  00000+0 -41223-3 0  9998
2 48238  87.8943 248.4187 0001239  96.3331 263.7940 13.14505600 37635
ONEWEB-0191             
1 48239U 21031AF  22025.58367839 -.00000010  00000+0 -62321-4 0  9993
2 48239  87.8928 248.4279 0001197  88.2318 271.8949 13.14505266 37490
ONEWEB-0195             
1 48240U 21031AG  22025.56255313 -.00000163  00000+0 -47294-3 0  9996
2 48240  87.8937 248.4154 0001555 115.6551 244.4739 13.14501826 37475
